RADARSAT-2              
1 32382U 07061A   26180.00282740 -.00000142  00000+0 -38036-4 0  9994
2 32382  98.5775 186.7662 0001294  85.4368 274.6962 14.29983565967647
RESOURCESAT-2           
1 37387U 11015A   26179.91333233  .00000092  00000+0  61965-4 0  9999
2 37387  98.7640 247.2740 0010647 218.6278 141.4139 14.21602520787842
RASAT                   
1 37791U 11044D   26179.97800124  .00000387  00000+0  75607-4 0  9999
2 37791  98.0582 271.1951 0021083 151.4874 323.3817 14.68176647794918
RESOURCESAT-2A          
1 41877U 16074A   26179.96538671  .00000219  00000+0  11987-3 0  9995
2 41877  98.7532 253.3734 0003138  61.6381 298.5113 14.21604642495973
RCM-1                   
1 44322U 19033A   26179.93348561  .00000539  00000+0  57860-4 0  9991
2 44322  97.7597 187.2131 0001513  88.7098 271.4295 14.92587793383834
RCM-3                   
1 44323U 19033B   26179.35274345  .00000000  00000+0  54053-5 0  9991
2 44323  97.7600 186.7352 0001511  90.1178 270.0215 14.92588223383761
RCM-2                   
1 44324U 19033C   26179.97830543  .00000052  00000+0  10462-4 0  9990
2 44324  97.7598 187.3021 0001480  89.1020 271.0368 14.92587584383845
QPS-SAR-7 (TSUKUYOMI-II)
1 59447U 24066F   26179.95243425  .00005883  00000+0  38126-3 0  9992
2 59447  45.6019 183.5851 0001835 350.2268   9.8581 15.09055967122003
QPS-SAR-8 (AMATERU-IV)  
1 60542U 24149CC  26179.70215081  .00005742  00000+0  41712-3 0  9991
2 60542  97.6669 258.7551 0004150  81.4832 278.6864 15.04244749102005
QPS-SAR-9 (SUSANOO-I)   
1 63205U 25050A   26179.94570153  .00006323  00000+0  47229-3 0  9997
2 63205  42.0205  37.2581 0005487 240.6638 119.3641 15.03251082 70739
