{
 "generated_at": "2026-06-29T09:26:28Z",
 "sources": [
  {
   "name": "CelesTrak",
   "url": "https://celestrak.org/NORAD/elements/",
   "license": "frei verfügbar; Attribution. Ursprünglich USSPACECOM/Space-Track."
  },
  {
   "name": "GCAT (J. McDowell, planet4589.org)",
   "url": "https://planet4589.org/space/gcat/",
   "license": "CC-BY 4.0"
  }
 ],
 "satellites": [
  {
   "norad": 59447,
   "name": "QPS-SAR-7 (TSUKUYOMI-II)",
   "intl": "2024-066F",
   "group": "sar",
   "gcat": {
    "class": "B",
    "category": "IMG-R",
    "owner": "QPS",
    "state": "J"
   },
   "omm": {
    "OBJECT_NAME": "QPS-SAR-7 (TSUKUYOMI-II)",
    "OBJECT_ID": "2024-066F",
    "EPOCH": "2026-06-28T22:51:30.319200",
    "MEAN_MOTION": 15.09055967,
    "ECCENTRICITY": 0.00018351,
    "INCLINATION": 45.6019,
    "RA_OF_ASC_NODE": 183.5851,
    "ARG_OF_PERICENTER": 350.2268,
    "MEAN_ANOMALY": 9.8581,
    "EPHEMERIS_TYPE": 0,
    "CLASSIFICATION_TYPE": "U",
    "NORAD_CAT_ID": 59447,
    "ELEMENT_SET_NO": 999,
    "REV_AT_EPOCH": 12200,
    "BSTAR": 0.00038126134,
    "MEAN_MOTION_DOT": 0.00005883,
    "MEAN_MOTION_DDOT": 0
   }
  },
  {
   "norad": 60542,
   "name": "QPS-SAR-8 (AMATERU-IV)",
   "intl": "2024-149CC",
   "group": "sar",
   "gcat": {
    "class": "B",
    "category": "IMG-R",
    "owner": "QPS",
    "state": "J"
   },
   "omm": {
    "OBJECT_NAME": "QPS-SAR-8 (AMATERU-IV)",
    "OBJECT_ID": "2024-149CC",
    "EPOCH": "2026-06-28T16:51:05.829984",
    "MEAN_MOTION": 15.04244749,
    "ECCENTRICITY": 0.00041506,
    "INCLINATION": 97.6669,
    "RA_OF_ASC_NODE": 258.7551,
    "ARG_OF_PERICENTER": 81.4832,
    "MEAN_ANOMALY": 278.6864,
    "EPHEMERIS_TYPE": 0,
    "CLASSIFICATION_TYPE": "U",
    "NORAD_CAT_ID": 60542,
    "ELEMENT_SET_NO": 999,
    "REV_AT_EPOCH": 10200,
    "BSTAR": 0.00041711715,
    "MEAN_MOTION_DOT": 0.00005742,
    "MEAN_MOTION_DDOT": 0
   }
  },
  {
   "norad": 63205,
   "name": "QPS-SAR-9 (SUSANOO-I)",
   "intl": "2025-050A",
   "group": "sar",
   "gcat": {
    "class": "B",
    "category": "IMG-R",
    "owner": "QPS",
    "state": "J"
   },
   "omm": {
    "OBJECT_NAME": "QPS-SAR-9 (SUSANOO-I)",
    "OBJECT_ID": "2025-050A",
    "EPOCH": "2026-06-28T22:41:48.612192",
    "MEAN_MOTION": 15.03251082,
    "ECCENTRICITY": 0.00054874,
    "INCLINATION": 42.0205,
    "RA_OF_ASC_NODE": 37.2581,
    "ARG_OF_PERICENTER": 240.6638,
    "MEAN_ANOMALY": 119.3641,
    "EPHEMERIS_TYPE": 0,
    "CLASSIFICATION_TYPE": "U",
    "NORAD_CAT_ID": 63205,
    "ELEMENT_SET_NO": 999,
    "REV_AT_EPOCH": 7073,
    "BSTAR": 0.0004722859,
    "MEAN_MOTION_DOT": 0.00006323,
    "MEAN_MOTION_DDOT": 0
   }
  },
  {
   "norad": 32382,
   "name": "RADARSAT-2",
   "intl": "2007-061A",
   "group": "resource",
   "gcat": {
    "class": "C",
    "category": "IMG-R",
    "owner": "CSA",
    "state": "CA"
   },
   "omm": {
    "OBJECT_NAME": "RADARSAT-2",
    "OBJECT_ID": "2007-061A",
    "EPOCH": "2026-06-29T00:04:04.287360",
    "MEAN_MOTION": 14.29983565,
    "ECCENTRICITY": 0.0001294,
    "INCLINATION": 98.5775,
    "RA_OF_ASC_NODE": 186.7662,
    "ARG_OF_PERICENTER": 85.4368,
    "MEAN_ANOMALY": 274.6962,
    "EPHEMERIS_TYPE": 0,
    "CLASSIFICATION_TYPE": "U",
    "NORAD_CAT_ID": 32382,
    "ELEMENT_SET_NO": 999,
    "REV_AT_EPOCH": 96764,
    "BSTAR": -0.000038036065,
    "MEAN_MOTION_DOT": -0.00000142,
    "MEAN_MOTION_DDOT": 0
   }
  },
  {
   "norad": 37791,
   "name": "RASAT",
   "intl": "2011-044D",
   "group": "resource",
   "gcat": {
    "class": null,
    "category": null,
    "owner": null,
    "state": null
   },
   "omm": {
    "OBJECT_NAME": "RASAT",
    "OBJECT_ID": "2011-044D",
    "EPOCH": "2026-06-28T23:28:19.307136",
    "MEAN_MOTION": 14.68176647,
    "ECCENTRICITY": 0.00210839,
    "INCLINATION": 98.0582,
    "RA_OF_ASC_NODE": 271.1951,
    "ARG_OF_PERICENTER": 151.4874,
    "MEAN_ANOMALY": 323.3817,
    "EPHEMERIS_TYPE": 0,
    "CLASSIFICATION_TYPE": "U",
    "NORAD_CAT_ID": 37791,
    "ELEMENT_SET_NO": 999,
    "REV_AT_EPOCH": 79491,
    "BSTAR": 0.000075607173,
    "MEAN_MOTION_DOT": 0.00000387,
    "MEAN_MOTION_DDOT": 0
   }
  },
  {
   "norad": 44322,
   "name": "RCM-1",
   "intl": "2019-033A",
   "group": "sar",
   "gcat": {
    "class": "C",
    "category": "IMG-R",
    "owner": "CSA",
    "state": "CA"
   },
   "omm": {
    "OBJECT_NAME": "RCM-1",
    "OBJECT_ID": "2019-033A",
    "EPOCH": "2026-06-28T22:24:13.156704",
    "MEAN_MOTION": 14.92587793,
    "ECCENTRICITY": 0.00015139,
    "INCLINATION": 97.7597,
    "RA_OF_ASC_NODE": 187.2131,
    "ARG_OF_PERICENTER": 88.7098,
    "MEAN_ANOMALY": 271.4295,
    "EPHEMERIS_TYPE": 0,
    "CLASSIFICATION_TYPE": "U",
    "NORAD_CAT_ID": 44322,
    "ELEMENT_SET_NO": 999,
    "REV_AT_EPOCH": 38383,
    "BSTAR": 0.000057860065,
    "MEAN_MOTION_DOT": 0.00000539,
    "MEAN_MOTION_DDOT": 0
   }
  },
  {
   "norad": 44324,
   "name": "RCM-2",
   "intl": "2019-033C",
   "group": "sar",
   "gcat": {
    "class": "C",
    "category": "IMG-R",
    "owner": "CSA",
    "state": "CA"
   },
   "omm": {
    "OBJECT_NAME": "RCM-2",
    "OBJECT_ID": "2019-033C",
    "EPOCH": "2026-06-28T23:28:45.589152",
    "MEAN_MOTION": 14.92587584,
    "ECCENTRICITY": 0.00014804,
    "INCLINATION": 97.7598,
    "RA_OF_ASC_NODE": 187.3021,
    "ARG_OF_PERICENTER": 89.102,
    "MEAN_ANOMALY": 271.0368,
    "EPHEMERIS_TYPE": 0,
    "CLASSIFICATION_TYPE": "U",
    "NORAD_CAT_ID": 44324,
    "ELEMENT_SET_NO": 999,
    "REV_AT_EPOCH": 38384,
    "BSTAR": 0.000010461615,
    "MEAN_MOTION_DOT": 5.2e-7,
    "MEAN_MOTION_DDOT": 0
   }
  },
  {
   "norad": 44323,
   "name": "RCM-3",
   "intl": "2019-033B",
   "group": "sar",
   "gcat": {
    "class": "C",
    "category": "IMG-R",
    "owner": "CSA",
    "state": "CA"
   },
   "omm": {
    "OBJECT_NAME": "RCM-3",
    "OBJECT_ID": "2019-033B",
    "EPOCH": "2026-06-28T08:27:57.034080",
    "MEAN_MOTION": 14.92588223,
    "ECCENTRICITY": 0.0001511,
    "INCLINATION": 97.76,
    "RA_OF_ASC_NODE": 186.7352,
    "ARG_OF_PERICENTER": 90.1178,
    "MEAN_ANOMALY": 270.0215,
    "EPHEMERIS_TYPE": 0,
    "CLASSIFICATION_TYPE": "U",
    "NORAD_CAT_ID": 44323,
    "ELEMENT_SET_NO": 999,
    "REV_AT_EPOCH": 38376,
    "BSTAR": 0.000005405335,
    "MEAN_MOTION_DOT": 0,
    "MEAN_MOTION_DDOT": 0
   }
  },
  {
   "norad": 37387,
   "name": "RESOURCESAT-2",
   "intl": "2011-015A",
   "group": "resource",
   "gcat": {
    "class": null,
    "category": "IMG",
    "owner": "ISRO",
    "state": "IN"
   },
   "omm": {
    "OBJECT_NAME": "RESOURCESAT-2",
    "OBJECT_ID": "2011-015A",
    "EPOCH": "2026-06-28T21:55:11.913312",
    "MEAN_MOTION": 14.2160252,
    "ECCENTRICITY": 0.00106471,
    "INCLINATION": 98.764,
    "RA_OF_ASC_NODE": 247.274,
    "ARG_OF_PERICENTER": 218.6278,
    "MEAN_ANOMALY": 141.4139,
    "EPHEMERIS_TYPE": 0,
    "CLASSIFICATION_TYPE": "U",
    "NORAD_CAT_ID": 37387,
    "ELEMENT_SET_NO": 999,
    "REV_AT_EPOCH": 78784,
    "BSTAR": 0.000061964542,
    "MEAN_MOTION_DOT": 9.2e-7,
    "MEAN_MOTION_DDOT": 0
   }
  },
  {
   "norad": 41877,
   "name": "RESOURCESAT-2A",
   "intl": "2016-074A",
   "group": "resource",
   "gcat": {
    "class": "C",
    "category": "IMG",
    "owner": "ISRO",
    "state": "IN"
   },
   "omm": {
    "OBJECT_NAME": "RESOURCESAT-2A",
    "OBJECT_ID": "2016-074A",
    "EPOCH": "2026-06-28T23:10:09.411744",
    "MEAN_MOTION": 14.21604642,
    "ECCENTRICITY": 0.00031386,
    "INCLINATION": 98.7532,
    "RA_OF_ASC_NODE": 253.3734,
    "ARG_OF_PERICENTER": 61.6381,
    "MEAN_ANOMALY": 298.5113,
    "EPHEMERIS_TYPE": 0,
    "CLASSIFICATION_TYPE": "U",
    "NORAD_CAT_ID": 41877,
    "ELEMENT_SET_NO": 999,
    "REV_AT_EPOCH": 49597,
    "BSTAR": 0.00011987194,
    "MEAN_MOTION_DOT": 0.00000219,
    "MEAN_MOTION_DDOT": 0
   }
  }
 ]
}
